ONEWEB-0275             
1 48993U 21060AC  25362.23626342 -.00000006  00000+0 -50093-4 0  9996
2 48993  87.9043 262.8148 0001704  72.0917 288.0399 13.16593205217065
ONEWEB-0276             
1 48994U 21060AD  25362.26950814  .00000051  00000+0  98810-4 0  9991
2 48994  87.9048 262.8077 0001441  70.8042 289.3245 13.16592597217084
ONEWEB-0277             
1 48995U 21060AE  25362.20618606 -.00000016  00000+0 -74418-4 0  9997
2 48995  87.9038 262.8429 0001671  73.1554 286.9760 13.16594300217061
ONEWEB-0278             
1 48996U 21060AF  25362.27267366 -.00000037  00000+0 -13129-3 0  9992
2 48996  87.9049 262.8030 0001430  77.8373 282.2918 13.16592472217203
ONEWEB-0279             
1 48997U 21060AG  25362.20460455  .00000010  00000+0 -87079-5 0  9997
2 48997  87.9050 262.8151 0001828  66.9215 293.2109 13.16593464217122
ONEWEB-0280             
1 48998U 21060AH  25362.29563127 -.00000089  00000+0 -26685-3 0  9998
2 48998  87.9046 262.8029 0001301  65.6971 294.4296 13.16595992217075
ONEWEB-0281             
1 48999U 21060AJ  25362.22518661 -.00000025  00000+0 -10002-3 0  9991
2 48999  87.9044 262.8121 0001728  76.2936 283.8387 13.16592603217135
ONEWEB-0282             
1 49000U 21060AK  25362.17926159  .00000170  00000+0  41210-3 0  9998
2 49000  87.9043 262.8320 0001562  68.8366 291.2931 13.16593015217102
